LANDSAT 9               
1 49260U 21088A   24073.44600487  .00000520  00000+0  12538-3 0  9997
2 49260  98.1959 144.6513 0001466  96.2547 263.8819 14.57119992130748
